start=new Date('2022-08-01T00:00:00.000Z').valueOf();
sats=[{"MEAN_MOTION":"15.06392097","MEAN_MOTION_DDOT":"0.0000000000000","EPHEMERIS_TYPE":"0","RA_OF_ASC_NODE":"118.5484","BSTAR":"0.00000401170000","LAUNCH_DATE":"2020-01-07","OBJECT_NAME":"STARLINK-1108","MEAN_ANOMALY":"285.9019","MEAN_MOTION_DOT":"-0.00000222","TLE_LINE1":"1 44944U 20001AG  22212.76123154 -.00000222  00000-0  40117-5 0  9991","FILE":"3526413","RCS_SIZE":"LARGE","COUNTRY_CODE":"US","PERIAPSIS":"546.075","ELEMENT_SET_NO":"999","APOAPSIS":"548.401","SITE":"AFETR","NORAD_CAT_ID":"44944","TIME_SYSTEM":"UTC","PERIOD":"95.593","REV_AT_EPOCH":"14163","SEMIMAJOR_AXIS":"6925.373","TLE_LINE2":"2 44944  53.0556 118.5484 0001679  74.2155 285.9019 15.06392097141630","ECCENTRICITY":"0.00016790","OBJECT_ID":"2020-001AG","EPOCH":"2022-07-31T18:16:10.405056","GP_ID":"209293794","CLASSIFICATION_TYPE":"U","INCLINATION":"53.0556","CENTER_NAME":"EARTH","DECAY_DATE":null,"ARG_OF_PERICENTER":"74.2155","MEAN_ELEMENT_THEORY":"SGP4","REF_FRAME":"TEME","OBJECT_TYPE":"PAYLOAD"},{"OBJECT_TYPE":"PAYLOAD","CENTER_NAME":"EARTH","INCLINATION":"53.0547","DECAY_DATE":null,"ARG_OF_PERICENTER":"67.8467","REF_FRAME":"TEME","MEAN_ELEMENT_THEORY":"SGP4","OBJECT_ID":"2020-001AH","GP_ID":"209293047","EPOCH":"2022-07-31T18:58:38.309952","CLASSIFICATION_TYPE":"U","TLE_LINE2":"2 44945  53.0547 118.4035 0001735  67.8467 292.2706 15.06395146141631","SEMIMAJOR_AXIS":"6925.363","ECCENTRICITY":"0.00017350","NORAD_CAT_ID":"44945","SITE":"AFETR","APOAPSIS":"548.430","PERIOD":"95.592","TIME_SYSTEM":"UTC","REV_AT_EPOCH":"14163","TLE_LINE1":"1 44945U 20001AH  22212.79072118  .00000328  00000-0  40919-4 0  9993","COUNTRY_CODE":"US","RCS_SIZE":"LARGE","FILE":"3526413","PERIAPSIS":"546.027","ELEMENT_SET_NO":"999","RA_OF_ASC_NODE":"118.4035","EPHEMERIS_TYPE":"0","OBJECT_NAME":"STARLINK-1109","MEAN_ANOMALY":"292.2706","BSTAR":"0.00004091900000","LAUNCH_DATE":"2020-01-07","MEAN_MOTION_DOT":"0.00000328","MEAN_MOTION":"15.06395146","MEAN_MOTION_DDOT":"0.0000000000000"},{"SEMIMAJOR_AXIS":"6897.423","TLE_LINE2":"2 44946  53.0045 105.2741 0002017  46.3974 313.7185 15.15557726141759","ECCENTRICITY":"0.00020170","OBJECT_ID":"2020-001AJ","GP_ID":"209263234","EPOCH":"2022-07-31T10:03:45.561312","CLASSIFICATION_TYPE":"U","CENTER_NAME":"EARTH","INCLINATION":"53.0045","DECAY_DATE":null,"ARG_OF_PERICENTER":"46.3974","REF_FRAME":"TEME","MEAN_ELEMENT_THEORY":"SGP4","OBJECT_TYPE":"PAYLOAD","MEAN_MOTION":"15.15557726","MEAN_MOTION_DDOT":"0.0000000000000","EPHEMERIS_TYPE":"0","RA_OF_ASC_NODE":"105.2741","MEAN_ANOMALY":"313.7185","OBJECT_NAME":"STARLINK-1110","BSTAR":"0.00043605000000","LAUNCH_DATE":"2020-01-07","MEAN_MOTION_DOT":"0.00008071","TLE_LINE1":"1 44946U 20001AJ  22212.41927733  .00008071  00000-0  43605-3 0  9992","COUNTRY_CODE":"US","RCS_SIZE":"LARGE","FILE":"3526169","PERIAPSIS":"517.897","ELEMENT_SET_NO":"999","NORAD_CAT_ID":"44946","SITE":"AFETR","APOAPSIS":"520.679","PERIOD":"95.015","TIME_SYSTEM":"UTC","REV_AT_EPOCH":"14175"},{"ECCENTRICITY":"0.00016820","TLE_LINE2":"2 44947  53.0553 118.5995 0001682  64.0246 296.0916 15.06409637141637","SEMIMAJOR_AXIS":"6925.319","OBJECT_ID":"2020-001AK","EPOCH":"2022-07-31T17:54:56.208960","GP_ID":"209293548","CLASSIFICATION_TYPE":"U","DECAY_DATE":null,"CENTER_NAME":"EARTH","INCLINATION":"53.0553","REF_FRAME":"TEME","MEAN_ELEMENT_THEORY":"SGP4","ARG_OF_PERICENTER":"64.0246","OBJECT_TYPE":"PAYLOAD","MEAN_MOTION_DDOT":"0.0000000000000","MEAN_MOTION":"15.06409637","MEAN_ANOMALY":"296.0916","OBJECT_NAME":"STARLINK-1116","BSTAR":"0.00004289600000","LAUNCH_DATE":"2020-01-07","EPHEMERIS_TYPE":"0","RA_OF_ASC_NODE":"118.5995","MEAN_MOTION_DOT":"0.00000358","RCS_SIZE":"LARGE","COUNTRY_CODE":"US","FILE":"3526413","TLE_LINE1":"1 44947U 20001AK  22212.74648390  .00000358  00000-0  42896-4 0  9990","ELEMENT_SET_NO":"999","PERIAPSIS":"546.019","PERIOD":"95.592","TIME_SYSTEM":"UTC","NORAD_CAT_ID":"44947","SITE":"AFETR","APOAPSIS":"548.349","REV_AT_EPOCH":"14163"},{"PERIAPSIS":"546.083","ELEMENT_SET_NO":"999","TLE_LINE1":"1 44949U 20001AM  22212.77228354  .00001084  00000-0  91670-4 0  9990","COUNTRY_CODE":"US","RCS_SIZE":"LARGE","FILE":"3526413","REV_AT_EPOCH":"14163","NORAD_CAT_ID":"44949","APOAPSIS":"548.367","SITE":"AFETR","PERIOD":"95.592","TIME_SYSTEM":"UTC","MEAN_MOTION":"15.06396227","MEAN_MOTION_DDOT":"0.0000000000000","MEAN_MOTION_DOT":"0.00001084","EPHEMERIS_TYPE":"0","RA_OF_ASC_NODE":"118.4898","OBJECT_NAME":"STARLINK-1122","MEAN_ANOMALY":"279.1606","BSTAR":"0.00009167000000","LAUNCH_DATE":"2020-01-07","ARG_OF_PERICENTER":"80.9569","REF_FRAME":"TEME","MEAN_ELEMENT_THEORY":"SGP4","CENTER_NAME":"EARTH","INCLINATION":"53.0548","DECAY_DATE":null,"OBJECT_TYPE":"PAYLOAD","TLE_LINE2":"2 44949  53.0548 118.4898 0001649  80.9569 279.1606 15.06396227141630","SEMIMAJOR_AXIS":"6925.360","ECCENTRICITY":"0.00016490","GP_ID":"209294293","CLASSIFICATION_TYPE":"U","EPOCH":"2022-07-31T18:32:05.297856","OBJECT_ID":"2020-001AM"},{"MEAN_MOTION_DOT":"0.00008551","OBJECT_NAME":"STARLINK-1125","MEAN_ANOMALY":"297.6138","BSTAR":"0.00052341000000","LAUNCH_DATE":"2020-01-07","EPHEMERIS_TYPE":"0","RA_OF_ASC_NODE":"117.6313","MEAN_MOTION_DDOT":"0.0000000000000","MEAN_MOTION":"15.10970746","REV_AT_EPOCH":"14161","PERIOD":"95.303","TIME_SYSTEM":"UTC","NORAD_CAT_ID":"44950","SITE":"AFETR","APOAPSIS":"534.905","ELEMENT_SET_NO":"999","PERIAPSIS":"531.575","COUNTRY_CODE":"US","RCS_SIZE":"LARGE","FILE":"3526169","TLE_LINE1":"1 44950U 20001AN  22212.42711172  .00008551  00000-0  52341-3 0  9996","EPOCH":"2022-07-31T10:15:02.452608","GP_ID":"209262483","CLASSIFICATION_TYPE":"U","OBJECT_ID":"2020-001AN","ECCENTRICITY":"0.00024090","TLE_LINE2":"2 44950  53.0519 117.6313 0002409  62.5098 297.6138 15.10970746141613","SEMIMAJOR_AXIS":"6911.375","OBJECT_TYPE":"PAYLOAD","REF_FRAME":"TEME","MEAN_ELEMENT_THEORY":"SGP4","ARG_OF_PERICENTER":"62.5098","DECAY_DATE":null,"CENTER_NAME":"EARTH","INCLINATION":"53.0519"},{"FILE":"3526169","COUNTRY_CODE":"US","RCS_SIZE":"LARGE","TLE_LINE1":"1 44951U 20001AP  22212.12852849  .00009373  00000-0  50830-3 0  9995","ELEMENT_SET_NO":"999","PERIAPSIS":"518.692","TIME_SYSTEM":"UTC","PERIOD":"95.035","APOAPSIS":"521.857","SITE":"AFETR","NORAD_CAT_ID":"44951","REV_AT_EPOCH":"14298","MEAN_MOTION_DDOT":"0.0000000000000","MEAN_MOTION":"15.15232573","LAUNCH_DATE":"2020-01-07","BSTAR":"0.00050830000000","OBJECT_NAME":"STARLINK-1126","MEAN_ANOMALY":"320.5987","EPHEMERIS_TYPE":"0","RA_OF_ASC_NODE":"107.5434","MEAN_MOTION_DOT":"0.00009373","DECAY_DATE":null,"INCLINATION":"53.0050","CENTER_NAME":"EARTH","MEAN_ELEMENT_THEORY":"SGP4","REF_FRAME":"TEME","ARG_OF_PERICENTER":"39.5172","OBJECT_TYPE":"PAYLOAD","ECCENTRICITY":"0.00022940","SEMIMAJOR_AXIS":"6898.410","TLE_LINE2":"2 44951  53.0050 107.5434 0002294  39.5172 320.5987 15.15232573142988","OBJECT_ID":"2020-001AP","CLASSIFICATION_TYPE":"U","GP_ID":"209262735","EPOCH":"2022-07-31T03:05:04.861536"},{"MEAN_ANOMALY":"294.0992","OBJECT_NAME":"STARLINK-1117","BSTAR":"0.00001863000000","LAUNCH_DATE":"2020-01-07","RA_OF_ASC_NODE":"121.2597","EPHEMERIS_TYPE":"0","MEAN_MOTION_DOT":"-0.00000004","MEAN_MOTION_DDOT":"0.0000000000000","MEAN_MOTION":"15.06397542","PERIOD":"95.592","TIME_SYSTEM":"UTC","NORAD_CAT_ID":"44952","SITE":"AFETR","APOAPSIS":"548.390","REV_AT_EPOCH":"14154","RCS_SIZE":"LARGE","COUNTRY_CODE":"US","FILE":"3526169","TLE_LINE1":"1 44952U 20001AQ  22212.15673320 -.00000004  00000-0  18630-4 0  9990","ELEMENT_SET_NO":"999","PERIAPSIS":"546.052","OBJECT_ID":"2020-001AQ","GP_ID":"209263485","CLASSIFICATION_TYPE":"U","EPOCH":"2022-07-31T03:45:41.748480","ECCENTRICITY":"0.00016880","SEMIMAJOR_AXIS":"6925.356","TLE_LINE2":"2 44952  53.0554 121.2597 0001688  66.0174 294.0992 15.06397542141544","OBJECT_TYPE":"PAYLOAD","DECAY_DATE":null,"CENTER_NAME":"EARTH","INCLINATION":"53.0554","REF_FRAME":"TEME","MEAN_ELEMENT_THEORY":"SGP4","ARG_OF_PERICENTER":"66.0174"},{"OBJECT_TYPE":"PAYLOAD","ARG_OF_PERICENTER":"84.0232","MEAN_ELEMENT_THEORY":"SGP4","REF_FRAME":"TEME","INCLINATION":"53.0565","CENTER_NAME":"EARTH","DECAY_DATE":null,"EPOCH":"2022-07-31T18:30:44.105184","GP_ID":"209293795","CLASSIFICATION_TYPE":"U","OBJECT_ID":"2020-001AR","TLE_LINE2":"2 44953  53.0565 118.4860 0001427  84.0232 276.0920 15.06389330142924","SEMIMAJOR_AXIS":"6925.381","ECCENTRICITY":"0.00014270","REV_AT_EPOCH":"14292","APOAPSIS":"548.235","SITE":"AFETR","NORAD_CAT_ID":"44953","TIME_SYSTEM":"UTC","PERIOD":"95.593","PERIAPSIS":"546.258","ELEMENT_SET_NO":"999","TLE_LINE1":"1 44953U 20001AR  22212.77134381 -.00000102  00000-0  12041-4 0  9997","FILE":"3526413","RCS_SIZE":"LARGE","COUNTRY_CODE":"US","MEAN_MOTION_DOT":"-0.00000102","EPHEMERIS_TYPE":"0","RA_OF_ASC_NODE":"118.4860","LAUNCH_DATE":"2020-01-07","BSTAR":"0.00001204100000","MEAN_ANOMALY":"276.0920","OBJECT_NAME":"STARLINK-1124","MEAN_MOTION":"15.06389330","MEAN_MOTION_DDOT":"0.0000000000000"},{"REV_AT_EPOCH":"14186","SITE":"AFETR","APOAPSIS":"548.372","NORAD_CAT_ID":"44954","TIME_SYSTEM":"UTC","PERIOD":"95.592","PERIAPSIS":"546.007","ELEMENT_SET_NO":"999","TLE_LINE1":"1 44954U 20001AS  22212.78518027  .00003622  00000-0  26188-3 0  9997","FILE":"3526413","RCS_SIZE":"LARGE","COUNTRY_CODE":"US","MEAN_MOTION_DOT":"0.00003622","RA_OF_ASC_NODE":"98.4359","EPHEMERIS_TYPE":"0","LAUNCH_DATE":"2020-01-07","BSTAR":"0.00026188000000","OBJECT_NAME":"STARLINK-1066","MEAN_ANOMALY":"283.9998","MEAN_MOTION":"15.06407807","MEAN_MOTION_DDOT":"0.0000000000000","OBJECT_TYPE":"PAYLOAD","ARG_OF_PERICENTER":"76.1181","MEAN_ELEMENT_THEORY":"SGP4","REF_FRAME":"TEME","INCLINATION":"53.0552","CENTER_NAME":"EARTH","DECAY_DATE":null,"EPOCH":"2022-07-31T18:50:39.575328","GP_ID":"209293048","CLASSIFICATION_TYPE":"U","OBJECT_ID":"2020-001AS","TLE_LINE2":"2 44954  53.0552  98.4359 0001708  76.1181 283.9998 15.06407807141862","SEMIMAJOR_AXIS":"6925.325","ECCENTRICITY":"0.00017080"}];
